CCSDS_OMM_VERS = 2.0
CREATION_DATE  = 
ORIGINATOR     = 

OBJECT_NAME    = AQUA
OBJECT_ID      = 2002-022A
CENTER_NAME    = EARTH
REF_FRAME      = TEME
TIME_SYSTEM    = UTC
MEAN_ELEMENT_THEORY = SGP/SGP4

EPOCH          = 2026-04-02T05:26:26.157696
MEAN_MOTION    = 14.62031457
ECCENTRICITY   = .0001306
INCLINATION    = 98.4215
RA_OF_ASC_NODE = 60.0276
ARG_OF_PERICENTER = 116.3558
MEAN_ANOMALY   = 298.8692

EPHEMERIS_TYPE = 0
CLASSIFICATION_TYPE = U
NORAD_CAT_ID   = 27424
ELEMENT_SET_NO = 999
REV_AT_EPOCH   = 27217
BSTAR          = .25056E-3
MEAN_MOTION_DOT = .1208E-4
MEAN_MOTION_DDOT = 0

CCSDS_OMM_VERS = 2.0
CREATION_DATE  = 
ORIGINATOR     = 

OBJECT_NAME    = CZ-4B R/B
OBJECT_ID      = 2002-024C
CENTER_NAME    = EARTH
REF_FRAME      = TEME
TIME_SYSTEM    = UTC
MEAN_ELEMENT_THEORY = SGP/SGP4

EPOCH          = 2026-04-02T03:07:39.165024
MEAN_MOTION    = 14.14551841
ECCENTRICITY   = .0049343
INCLINATION    = 98.8786
RA_OF_ASC_NODE = 145.4135
ARG_OF_PERICENTER = 317.3188
MEAN_ANOMALY   = 96.6752

EPHEMERIS_TYPE = 0
CLASSIFICATION_TYPE = U
NORAD_CAT_ID   = 27432
ELEMENT_SET_NO = 999
REV_AT_EPOCH   = 23255
BSTAR          = .54022E-4
MEAN_MOTION_DOT = .6E-6
MEAN_MOTION_DDOT = 0

CCSDS_OMM_VERS = 2.0
CREATION_DATE  = 
ORIGINATOR     = 

OBJECT_NAME    = MIDORI II (ADEOS-II)
OBJECT_ID      = 2002-056A
CENTER_NAME    = EARTH
REF_FRAME      = TEME
TIME_SYSTEM    = UTC
MEAN_ELEMENT_THEORY = SGP/SGP4

EPOCH          = 2026-04-02T02:45:48.335328
MEAN_MOTION    = 14.29303146
ECCENTRICITY   = .0000514
INCLINATION    = 98.7810
RA_OF_ASC_NODE = 50.7607
ARG_OF_PERICENTER = 21.0315
MEAN_ANOMALY   = 339.0888

EPHEMERIS_TYPE = 0
CLASSIFICATION_TYPE = U
NORAD_CAT_ID   = 27597
ELEMENT_SET_NO = 999
REV_AT_EPOCH   = 21364
BSTAR          = .16495E-3
MEAN_MOTION_DOT = .374E-5
MEAN_MOTION_DDOT = 0

CCSDS_OMM_VERS = 2.0
CREATION_DATE  = 
ORIGINATOR     = 

OBJECT_NAME    = H-2A R/B
OBJECT_ID      = 2002-056E
CENTER_NAME    = EARTH
REF_FRAME      = TEME
TIME_SYSTEM    = UTC
MEAN_ELEMENT_THEORY = SGP/SGP4

EPOCH          = 2026-04-02T03:30:21.684384
MEAN_MOTION    = 14.33776953
ECCENTRICITY   = .0071431
INCLINATION    = 98.3245
RA_OF_ASC_NODE = 51.6245
ARG_OF_PERICENTER = 91.6485
MEAN_ANOMALY   = 280.3323

EPHEMERIS_TYPE = 0
CLASSIFICATION_TYPE = U
NORAD_CAT_ID   = 27601
ELEMENT_SET_NO = 999
REV_AT_EPOCH   = 21747
BSTAR          = .14167E-3
MEAN_MOTION_DOT = .364E-5
MEAN_MOTION_DDOT = 0

CCSDS_OMM_VERS = 2.0
CREATION_DATE  = 
ORIGINATOR     = 

OBJECT_NAME    = CZ-4B R/B
OBJECT_ID      = 2003-049C
CENTER_NAME    = EARTH
REF_FRAME      = TEME
TIME_SYSTEM    = UTC
MEAN_ELEMENT_THEORY = SGP/SGP4

EPOCH          = 2026-04-01T23:17:54.053664
MEAN_MOTION    = 14.55041279
ECCENTRICITY   = .0048523
INCLINATION    = 98.6895
RA_OF_ASC_NODE = 87.7926
ARG_OF_PERICENTER = 159.3872
MEAN_ANOMALY   = 200.9296

EPHEMERIS_TYPE = 0
CLASSIFICATION_TYPE = U
NORAD_CAT_ID   = 28059
ELEMENT_SET_NO = 999
REV_AT_EPOCH   = 18998
BSTAR          = .1097E-3
MEAN_MOTION_DOT = .429E-5
MEAN_MOTION_DDOT = 0

CCSDS_OMM_VERS = 2.0
CREATION_DATE  = 
ORIGINATOR     = 

OBJECT_NAME    = CZ-2C R/B
OBJECT_ID      = 2004-012C
CENTER_NAME    = EARTH
REF_FRAME      = TEME
TIME_SYSTEM    = UTC
MEAN_ELEMENT_THEORY = SGP/SGP4

EPOCH          = 2026-04-02T04:31:57.745920
MEAN_MOTION    = 15.67476463
ECCENTRICITY   = .0013595
INCLINATION    = 97.7175
RA_OF_ASC_NODE = 159.7530
ARG_OF_PERICENTER = 217.1187
MEAN_ANOMALY   = 142.9134

EPHEMERIS_TYPE = 0
CLASSIFICATION_TYPE = U
NORAD_CAT_ID   = 28222
ELEMENT_SET_NO = 999
REV_AT_EPOCH   = 20795
BSTAR          = .68494E-3
MEAN_MOTION_DOT = .74917E-3
MEAN_MOTION_DDOT = 0

CCSDS_OMM_VERS = 2.0
CREATION_DATE  = 
ORIGINATOR     = 

OBJECT_NAME    = SL-16 R/B
OBJECT_ID      = 2004-021B
CENTER_NAME    = EARTH
REF_FRAME      = TEME
TIME_SYSTEM    = UTC
MEAN_ELEMENT_THEORY = SGP/SGP4

EPOCH          = 2026-04-02T00:06:14.580288
MEAN_MOTION    = 14.14597783
ECCENTRICITY   = .000524
INCLINATION    = 71.0011
RA_OF_ASC_NODE = 183.5663
ARG_OF_PERICENTER = 340.7724
MEAN_ANOMALY   = 19.3200

EPHEMERIS_TYPE = 0
CLASSIFICATION_TYPE = U
NORAD_CAT_ID   = 28353
ELEMENT_SET_NO = 999
REV_AT_EPOCH   = 12613
BSTAR          = .20687E-3
MEAN_MOTION_DOT = .35E-5
MEAN_MOTION_DDOT = 0

CCSDS_OMM_VERS = 2.0
CREATION_DATE  = 
ORIGINATOR     = 

OBJECT_NAME    = CZ-4B R/B
OBJECT_ID      = 2004-035C
CENTER_NAME    = EARTH
REF_FRAME      = TEME
TIME_SYSTEM    = UTC
MEAN_ELEMENT_THEORY = SGP/SGP4

EPOCH          = 2026-04-02T01:44:21.280128
MEAN_MOTION    = 15.29477442
ECCENTRICITY   = .0030187
INCLINATION    = 97.3455
RA_OF_ASC_NODE = 126.0363
ARG_OF_PERICENTER = 243.9717
MEAN_ANOMALY   = 115.8414

EPHEMERIS_TYPE = 0
CLASSIFICATION_TYPE = U
NORAD_CAT_ID   = 28415
ELEMENT_SET_NO = 999
REV_AT_EPOCH   = 18348
BSTAR          = .30191E-3
MEAN_MOTION_DOT = .867E-4
MEAN_MOTION_DDOT = 0

CCSDS_OMM_VERS = 2.0
CREATION_DATE  = 
ORIGINATOR     = 

OBJECT_NAME    = CZ-2C R/B
OBJECT_ID      = 2004-046B
CENTER_NAME    = EARTH
REF_FRAME      = TEME
TIME_SYSTEM    = UTC
MEAN_ELEMENT_THEORY = SGP/SGP4

EPOCH          = 2026-04-02T04:27:08.388864
MEAN_MOTION    = 14.27001185
ECCENTRICITY   = .0140645
INCLINATION    = 98.1978
RA_OF_ASC_NODE = 5.7055
ARG_OF_PERICENTER = 85.4327
MEAN_ANOMALY   = 276.2904

EPHEMERIS_TYPE = 0
CLASSIFICATION_TYPE = U
NORAD_CAT_ID   = 28480
ELEMENT_SET_NO = 999
REV_AT_EPOCH   = 11185
BSTAR          = .10488E-3
MEAN_MOTION_DOT = .243E-5
MEAN_MOTION_DDOT = 0

CCSDS_OMM_VERS = 2.0
CREATION_DATE  = 
ORIGINATOR     = 

OBJECT_NAME    = ARIANE 5 R/B
OBJECT_ID      = 2004-049H
CENTER_NAME    = EARTH
REF_FRAME      = TEME
TIME_SYSTEM    = UTC
MEAN_ELEMENT_THEORY = SGP/SGP4

EPOCH          = 2026-04-02T01:50:12.571296
MEAN_MOTION    = 14.85309959
ECCENTRICITY   = .0082836
INCLINATION    = 98.2660
RA_OF_ASC_NODE = 261.4149
ARG_OF_PERICENTER = 275.3718
MEAN_ANOMALY   = 83.8049

EPHEMERIS_TYPE = 0
CLASSIFICATION_TYPE = U
NORAD_CAT_ID   = 28499
ELEMENT_SET_NO = 999
REV_AT_EPOCH   = 14926
BSTAR          = .12017E-3
MEAN_MOTION_DOT = .1032E-4
MEAN_MOTION_DDOT = 0

CCSDS_OMM_VERS = 2.0
CREATION_DATE  = 
ORIGINATOR     = 

OBJECT_NAME    = CZ-2D R/B
OBJECT_ID      = 2005-024B
CENTER_NAME    = EARTH
REF_FRAME      = TEME
TIME_SYSTEM    = UTC
MEAN_ELEMENT_THEORY = SGP/SGP4

EPOCH          = 2026-04-02T00:57:39.760128
MEAN_MOTION    = 15.62352140
ECCENTRICITY   = .0001861
INCLINATION    = 97.3568
RA_OF_ASC_NODE = 108.0776
ARG_OF_PERICENTER = 301.2563
MEAN_ANOMALY   = 58.8512

EPHEMERIS_TYPE = 0
CLASSIFICATION_TYPE = U
NORAD_CAT_ID   = 28738
ELEMENT_SET_NO = 999
REV_AT_EPOCH   = 14342
BSTAR          = .52682E-3
MEAN_MOTION_DOT = .46642E-3
MEAN_MOTION_DDOT = 0

CCSDS_OMM_VERS = 2.0
CREATION_DATE  = 
ORIGINATOR     = 

OBJECT_NAME    = ALOS (DAICHI)
OBJECT_ID      = 2006-002A
CENTER_NAME    = EARTH
REF_FRAME      = TEME
TIME_SYSTEM    = UTC
MEAN_ELEMENT_THEORY = SGP/SGP4

EPOCH          = 2026-04-01T13:55:49.321344
MEAN_MOTION    = 14.69880872
ECCENTRICITY   = .00009764
INCLINATION    = 98.1255
RA_OF_ASC_NODE = 47.4277
ARG_OF_PERICENTER = 112.1277
MEAN_ANOMALY   = 248.0033

EPHEMERIS_TYPE = 0
CLASSIFICATION_TYPE = U
NORAD_CAT_ID   = 28931
ELEMENT_SET_NO = 999
REV_AT_EPOCH   = 7684
BSTAR          = .28529129E-3
MEAN_MOTION_DOT = .1657E-4
MEAN_MOTION_DDOT = 0

