AQUA                    
1 27424U 02022A   26092.22669164  .00001208  00000+0  25056-3 0  9991
2 27424  98.4215  60.0276 0001306 116.3558 298.8692 14.62031457272176
CZ-4B R/B               
1 27432U 02024C   26092.13031441  .00000060  00000+0  54022-4 0  9994
2 27432  98.8786 145.4135 0049343 317.3188  96.6752 14.14551841232559
MIDORI II (ADEOS-II)    
1 27597U 02056A   26092.11514277  .00000374  00000+0  16495-3 0  9991
2 27597  98.7810  50.7607 0000514  21.0315 339.0888 14.29303146213640
H-2A R/B                
1 27601U 02056E   26092.14608431  .00000364  00000+0  14167-3 0  9999
2 27601  98.3245  51.6245 0071431  91.6485 280.3323 14.33776953217471
CZ-4B R/B               
1 28059U 03049C   26091.97076451  .00000429  00000+0  10970-3 0  9991
2 28059  98.6895  87.7926 0048523 159.3872 200.9296 14.55041279189988
CZ-2C R/B               
1 28222U 04012C   26092.18886280  .00074917  00000+0  68494-3 0  9994
2 28222  97.7175 159.7530 0013595 217.1187 142.9134 15.67476463207950
SL-16 R/B               
1 28353U 04021B   26092.00433542  .00000350  00000+0  20687-3 0  9991
2 28353  71.0011 183.5663 0005240 340.7724  19.3200 14.14597783126130
CZ-4B R/B               
1 28415U 04035C   26092.07246852  .00008670  00000+0  30191-3 0  9992
2 28415  97.3455 126.0363 0030187 243.9717 115.8414 15.29477442183481
CZ-2C R/B               
1 28480U 04046B   26092.18551376  .00000243  00000+0  10488-3 0  9993
2 28480  98.1978   5.7055 0140645  85.4327 276.2904 14.27001185111852
ARIANE 5 R/B            
1 28499U 04049H   26092.07653439  .00001032  00000+0  12017-3 0  9994
2 28499  98.2660 261.4149 0082836 275.3718  83.8049 14.85309959149269
CZ-2D R/B               
1 28738U 05024B   26092.04004352  .00046642  00000+0  52682-3 0  9993
2 28738  97.3568 108.0776 0001861 301.2563  58.8512 15.62352140143425
ALOS (DAICHI)           
1 28931U 06002A   26091.58043196  .00001657  00000+0  28529-3 0  9992
2 28931  98.1255  47.4277 0000976 112.1277 248.0033 14.69880872 76847
